NORAD_CAT_ID,OBJECT_NAME,OBJECT_TYPE,EPOCH,MEAN_MOTION,ECCENTRICITY,INCLINATION,RA_OF_ASC_NODE,ARG_OF_PERICENTER,MEAN_ANOMALY,BSTAR,MEAN_MOTION_DOT,MEAN_MOTION_DDOT,TLE_LINE0,TLE_LINE1,TLE_LINE2,SEMIMAJOR_AXIS,PERIOD,APOGEE,PERIGEE,DECAYED
49431.0,STARLINK-3153,PAYLOAD,2023-09-17 11:21:39,15.08844225,0.0001513,53.2189,328.5385,89.8335,270.2831,6.8812e-05,8.07e-06,0.0,0 STARLINK-3153,1 49431U 21104Z   23260.47337097  .00000807  00000-0  68812-4 0  9996,2 49431  53.2189 328.5385 0001513  89.8335 270.2831 15.08844225102129,6917.867,95.437,540.779,538.686,0.0
49431.0,STARLINK-3153,PAYLOAD,2023-09-18 09:37:03,15.08840488,0.0001394,53.2184,324.375,99.2035,260.9115,2.6645e-05,1.36e-06,0.0,0 STARLINK-3153,1 49431U 21104Z   23261.40073360  .00000136  00000-0  26645-4 0  9993,2 49431  53.2184 324.3750 0001394  99.2035 260.9115 15.08840488103346,6917.879,95.438,540.708,538.78,0.0
49431.0,STARLINK-3153,PAYLOAD,2023-09-18 11:12:26,15.08842434,0.0001518,53.2192,324.0779,106.4505,253.6654,3.2676e-05,2.32e-06,0.0,0 STARLINK-3153,1 49431U 21104Z   23261.46697191  .00000232  00000-0  32676-4 0  9991,2 49431  53.2192 324.0779 0001518 106.4505 253.6654 15.08842434102275,6917.873,95.437,540.788,538.688,0.0
49431.0,STARLINK-3153,PAYLOAD,2023-09-18 20:44:45,15.08842306,0.000148,53.219,322.2941,103.6805,256.4352,3.4759e-05,2.65e-06,0.0,0 STARLINK-3153,1 49431U 21104Z   23261.86441157  .00000265  00000-0  34759-4 0  9994,2 49431  53.2190 322.2941 0001480 103.6805 256.4352 15.08842306102335,6917.873,95.437,540.762,538.714,0.0
49431.0,STARLINK-3153,PAYLOAD,2023-09-19 12:38:35,15.08849353,0.0001538,53.2196,319.322,98.6296,261.487,8.4108e-05,1.051e-05,0.0,0 STARLINK-3153,1 49431U 21104Z   23262.52680430  .00001051  00000-0  84108-4 0  9994,2 49431  53.2196 319.3220 0001538  98.6296 261.4870 15.08849353103510,6917.852,95.437,540.781,538.653,0.0
49431.0,STARLINK-3153,PAYLOAD,2023-09-20 04:32:28,15.08830742,0.0001421,53.2187,316.3462,104.5002,255.6148,-6.3629e-05,-1.3e-05,0.0,0 STARLINK-3153,1 49431U 21104Z   23263.18922253 -.00001300  00000-0 -63629-4 0  9993,2 49431  53.2187 316.3462 0001421 104.5002 255.6148 15.08830742103614,6917.909,95.438,540.757,538.791,0.0
49431.0,STARLINK-3153,PAYLOAD,2023-09-20 10:54:01,15.0883263,0.0001319,53.2189,315.1577,99.3654,260.7487,-3.3352e-05,-8.19e-06,0.0,0 STARLINK-3153,1 49431U 21104Z   23263.45418216 -.00000819  00000-0 -33352-4 0  9996,2 49431  53.2189 315.1577 0001319  99.3654 260.7487 15.08832630102575,6917.903,95.438,540.68,538.855,0.0
49431.0,STARLINK-3153,PAYLOAD,2023-09-21 10:44:48,15.08845412,0.0001232,53.2178,310.697,95.3775,264.7357,-3.5047e-05,-8.46e-06,0.0,0 STARLINK-3153,1 49431U 21104Z   23264.44777849 -.00000846  00000-0 -35047-4 0  9999,2 49431  53.2178 310.6970 0001232  95.3775 264.7357 15.08845412103803,6917.864,95.437,540.581,538.877,0.0
49431.0,STARLINK-3153,PAYLOAD,2023-09-21 12:20:11,15.08845105,0.0001206,53.2174,310.3991,90.861,269.2521,-1.0545e-05,-4.56e-06,0.0,0 STARLINK-3153,1 49431U 21104Z   23264.51401789 -.00000456  00000-0 -10545-4 0  9997,2 49431  53.2174 310.3991 0001206  90.8610 269.2521 15.08845105102731,6917.865,95.437,540.564,538.895,0.0
49431.0,STARLINK-3153,PAYLOAD,2023-09-21 20:17:06,15.08845096,0.0001283,53.2174,308.9115,81.1247,278.989,-3.7952e-05,-8.92e-06,0.0,0 STARLINK-3153,1 49431U 21104Z   23264.84521820 -.00000892  00000-0 -37952-4 0  9997,2 49431  53.2174 308.9115 0001283  81.1247 278.9890 15.08845096102786,6917.865,95.437,540.617,538.842,0.0
49431.0,STARLINK-3153,PAYLOAD,2023-09-22 10:35:35,15.08839788,0.0001243,53.2175,306.2357,85.7003,274.4131,0.00018071,2.589e-05,0.0,0 STARLINK-3153,1 49431U 21104Z   23265.44138094  .00002589  00000-0  18071-3 0  9994,2 49431  53.2175 306.2357 0001243  85.7003 274.4131 15.08839788102872,6917.881,95.438,540.606,538.886,0.0
49431.0,STARLINK-3153,PAYLOAD,2023-09-22 15:21:44,15.08840692,0.0001322,53.2174,305.3449,89.1718,270.9426,0.00018964,2.732e-05,0.0,0 STARLINK-3153,1 49431U 21104Z   23265.64010099  .00002732  00000-0  18964-3 0  9991,2 49431  53.2174 305.3449 0001322  89.1718 270.9426 15.08840692103989,6917.878,95.438,540.658,538.829,0.0
49431.0,STARLINK-3153,PAYLOAD,2023-09-23 08:50:58,15.08847993,0.0001488,53.2176,302.0734,82.2571,277.859,0.00012398,1.686e-05,0.0,0 STARLINK-3153,1 49431U 21104Z   23266.36873829  .00001686  00000-0  12398-3 0  9991,2 49431  53.2176 302.0734 0001488  82.2571 277.8590 15.08847993103019,6917.856,95.437,540.75,538.692,0.0
49431.0,STARLINK-3153,PAYLOAD,2023-09-23 19:58:40,15.08851289,0.0001334,53.2164,299.9912,96.4813,263.6331,4.8808e-05,4.89e-06,0.0,0 STARLINK-3153,1 49431U 21104Z   23266.83241703  .00000489  00000-0  48808-4 0  9999,2 49431  53.2164 299.9912 0001334  96.4813 263.6331 15.08851289104160,6917.846,95.437,540.634,538.788,0.0
49431.0,STARLINK-3153,PAYLOAD,2023-09-24 08:41:46,15.08846164,0.0001568,53.2178,297.6124,92.7706,267.3465,1.209e-05,-9.6e-07,0.0,0 STARLINK-3153,1 49431U 21104Z   23267.36233939 -.00000096  00000-0  12090-4 0  9999,2 49431  53.2178 297.6124 0001568  92.7706 267.3465 15.08846164104248,6917.862,95.437,540.811,538.642,0.0
49431.0,STARLINK-3153,PAYLOAD,2023-09-24 11:52:32,15.08849587,0.0001589,53.2177,297.0161,110.6061,249.5102,2.2579e-05,7.1e-07,0.0,0 STARLINK-3153,1 49431U 21104Z   23267.49481538  .00000071  00000-0  22579-4 0  9998,2 49431  53.2177 297.0161 0001589 110.6061 249.5102 15.08849587103183,6917.851,95.437,540.815,538.617,0.0
49431.0,STARLINK-3153,PAYLOAD,2023-09-24 13:27:54,15.08853339,0.0001707,53.2174,296.7177,127.9079,232.2067,2.0711e-05,4.2e-07,0.0,0 STARLINK-3153,1 49431U 21104Z   23267.56105130  .00000042  00000-0  20711-4 0  9991,2 49431  53.2174 296.7177 0001707 127.9079 232.2067 15.08853339104275,6917.84,95.437,540.885,538.524,0.0
49431.0,STARLINK-3153,PAYLOAD,2023-09-25 02:11:01,15.08828506,0.0001461,53.2178,294.3387,99.2576,260.8581,-6.3809e-07,-2.98e-06,0.0,0 STARLINK-3153,1 49431U 21104Z   23268.09099031 -.00000298  00000-0 -63809-6 0  9994,2 49431  53.2178 294.3387 0001461  99.2576 260.8581 15.08828506104351,6917.916,95.438,540.791,538.77,0.0
49431.0,STARLINK-3153,PAYLOAD,2023-09-25 08:32:33,15.08835623,0.000161,53.2171,293.1525,90.1962,269.9214,-1.6782e-05,-5.55e-06,0.0,0 STARLINK-3153,1 49431U 21104Z   23268.35594829 -.00000555  00000-0 -16782-4 0  9990,2 49431  53.2171 293.1525 0001610  90.1962 269.9214 15.08835623103316,6917.894,95.438,540.873,538.645,0.0
49431.0,STARLINK-3153,PAYLOAD,2023-09-25 13:18:42,15.08843496,0.0001687,53.2175,292.2572,106.7662,253.3515,4.6621e-05,4.54e-06,0.0,0 STARLINK-3153,1 49431U 21104Z   23268.55466106  .00000454  00000-0  46621-4 0  9999,2 49431  53.2175 292.2572 0001687 106.7662 253.3515 15.08843496104428,6917.87,95.437,540.902,538.568,0.0
49431.0,STARLINK-3153,PAYLOAD,2023-09-26 08:23:19,15.08856314,0.0001655,53.2163,288.6882,105.7839,254.3335,0.00028583,4.266e-05,0.0,0 STARLINK-3153,1 49431U 21104Z   23269.34953281  .00004266  00000-0  28583-3 0  9993,2 49431  53.2163 288.6882 0001655 105.7839 254.3335 15.08856314104545,6917.831,95.437,540.84,538.551,0.0
49431.0,STARLINK-3153,PAYLOAD,2023-09-27 00:17:11,15.08843873,0.0001898,53.2163,285.7241,73.5485,286.5715,0.00019996,2.896e-05,0.0,0 STARLINK-3153,1 49431U 21104Z   23270.01194076  .00002896  00000-0  19996-3 0  9993,2 49431  53.2163 285.7241 0001898  73.5485 286.5715 15.08843873104646,6917.869,95.437,541.047,538.421,0.0
49431.0,STARLINK-3153,PAYLOAD,2023-09-27 09:49:30,15.0883744,0.0001283,53.2159,283.9318,78.9792,281.1344,-2.0507e-05,-6.14e-06,0.0,0 STARLINK-3153,1 49431U 21104Z   23270.40938276 -.00000614  00000-0 -20507-4 0  9993,2 49431  53.2159 283.9318 0001283  78.9792 281.1344 15.08837440104703,6917.888,95.438,540.641,538.866,0.0
49431.0,STARLINK-3153,PAYLOAD,2023-09-28 09:40:18,15.08837879,0.0001422,53.2164,279.4739,98.8217,261.2936,3.9011e-05,3.33e-06,0.0,0 STARLINK-3153,1 49431U 21104Z   23271.40298630  .00000333  00000-0  39011-4 0  9993,2 49431  53.2164 279.4739 0001422  98.8217 261.2936 15.08837879103772,6917.887,95.438,540.736,538.768,0.0
49431.0,STARLINK-3153,PAYLOAD,2023-09-29 09:31:05,15.08845016,0.0001372,53.2154,275.0123,85.6819,274.433,0.0003534,5.342e-05,0.0,0 STARLINK-3153,1 49431U 21104Z   23272.39658910  .00005342  00000-0  35340-3 0  9998,2 49431  53.2154 275.0123 0001372  85.6819 274.4330 15.08845016105000,6917.865,95.437,540.679,538.781,0.0
49431.0,STARLINK-3153,PAYLOAD,2023-09-29 23:49:33,15.08843826,0.0001481,53.2138,272.3353,85.0127,275.1034,0.00018106,2.595e-05,0.0,0 STARLINK-3153,1 49431U 21104Z   23272.99274915  .00002595  00000-0  18106-3 0  9991,2 49431  53.2138 272.3353 0001481  85.0127 275.1034 15.08843826105099,6917.869,95.437,540.758,538.709,0.0
49431.0,STARLINK-3153,PAYLOAD,2023-09-30 04:35:42,15.08848642,0.0001449,53.214,271.4428,87.014,273.1018,0.00024909,3.679e-05,0.0,0 STARLINK-3153,1 49431U 21104Z   23273.19146692  .00003679  00000-0  24909-3 0  9996,2 49431  53.2140 271.4428 0001449  87.0140 273.1018 15.08848642104041,6917.854,95.437,540.721,538.717,0.0
49431.0,STARLINK-3153,PAYLOAD,2023-10-01 04:26:29,15.08842086,0.0001615,53.2162,266.9761,117.3061,242.8095,2.2101e-05,6.4e-07,0.0,0 STARLINK-3153,1 49431U 21104Z   23274.18506709  .00000064  00000-0  22101-4 0  9993,2 49431  53.2162 266.9761 0001615 117.3061 242.8095 15.08842086105278,6917.874,95.437,540.856,538.622,0.0
49431.0,STARLINK-3153,PAYLOAD,2023-10-01 09:12:39,15.08844458,0.0001494,53.2161,266.0865,98.6934,261.4228,0.00013232,1.819e-05,0.0,0 STARLINK-3153,1 49431U 21104Z   23274.38378750  .00001819  00000-0  13232-3 0  9991,2 49431  53.2161 266.0865 0001494  98.6934 261.4228 15.08844458104222,6917.867,95.437,540.765,538.698,0.0
49431.0,STARLINK-3153,PAYLOAD,2023-10-01 17:09:35,15.08842,0.0001476,53.2162,264.5985,102.7584,257.3573,0.00013408,1.847e-05,0.0,0 STARLINK-3153,1 49431U 21104Z   23274.71498896  .00001847  00000-0  13408-3 0  9998,2 49431  53.2162 264.5985 0001476 102.7584 257.3573 15.08842000104270,6917.874,95.437,540.76,538.718,0.0
